[{"OBJECT_NAME":"CORVUS BC4","OBJECT_ID":"2018-099K","EPOCH":"2026-03-09T15:49:18.108768","MEAN_MOTION":15.1161571,"ECCENTRICITY":0.00080458,"INCLINATION":97.4206,"RA_OF_ASC_NODE":114.5457,"ARG_OF_PERICENTER":356.5821,"MEAN_ANOMALY":3.5354,"EPHEMERIS_TYPE":0,"CLASSIFICATION_TYPE":"U","NORAD_CAT_ID":43767,"ELEMENT_SET_NO":999,"REV_AT_EPOCH":39736,"BSTAR":0.00033979895,"MEAN_MOTION_DOT":5.714e-5,"MEAN_MOTION_DDOT":0},{"OBJECT_NAME":"STARLINK-3366","OBJECT_ID":"2022-005A","EPOCH":"2026-03-09T20:55:41.209536","MEAN_MOTION":15.08843448,"ECCENTRICITY":0.00010805,"INCLINATION":53.2165,"RA_OF_ASC_NODE":288.3062,"ARG_OF_PERICENTER":86.7312,"MEAN_ANOMALY":273.3804,"EPHEMERIS_TYPE":0,"CLASSIFICATION_TYPE":"U","NORAD_CAT_ID":51104,"ELEMENT_SET_NO":999,"REV_AT_EPOCH":22890,"BSTAR":7.2900776e-5,"MEAN_MOTION_DOT":8.73e-6,"MEAN_MOTION_DDOT":0}]
