CORVUS BC4              
1 43767U 18099K   26068.65923737  .00005714  00000+0  33980-3 0  9990
2 43767  97.4206 114.5457 0008046 356.5821   3.5354 15.11615710397368
STARLINK-3366           
1 51104U 22005A   26068.87200473  .00000873  00000+0  72901-4 0  9993
2 51104  53.2165 288.3062 0001080  86.7312 273.3804 15.08843448228903
